IRIDIUM 171             
1 43929U 19002H   24248.56989192  .00000235  00000+0  76980-4 0  9991
2 43929  86.3917 265.6782 0002273  99.3305 260.8148 14.34219918295706
IRIDIUM 170             
1 43930U 19002J   24248.57824563  .00001369  00000+0  21328-3 0  9998
2 43930  86.6040 265.4805 0002522  90.3405 269.8101 14.72251129303532
IRIDIUM 167             
1 43931U 19002K   24248.56355274  .00000203  00000+0  65315-4 0  9997
2 43931  86.3908 265.4631 0002195  94.7294 265.4153 14.34218141295703
IRIDIUM 181             
1 56726U 23068S   24248.61318588  .00001573  00000+0  45870-3 0  9997
2 56726  86.8661 323.0620 0001954 100.4688 259.6733 14.43591808 68591
IRIDIUM 174             
1 56728U 23068U   24248.58395353  .00003441  00000+0  44880-3 0  9996
2 56728  86.1929 277.7680 0001812 104.5411 255.6011 14.80278532 70120
IRIDIUM 178             
1 56729U 23068V   24248.24063191  .00004907  00000+0  64177-3 0  9991
2 56729  86.5759 299.1551 0002139 100.8327 259.3136 14.80255170 70075
